{
  "type": "FeatureCollection",
  "features": [
    {
      "type": "Feature",
      "properties": {
        "norad_id": 54741,
        "name": "GALAXY 35 (G-35)",
        "group": "intelsat",
        "lat": -0.009756021908031457,
        "lon": -11.729445584194853,
        "alt_km": 35784.44739789283,
        "timestamp": "2025-12-17T23:38:06.530849+00:00",
        "meta_object_name": "GALAXY 35 (G-35)",
        "meta_object_id": "2022-170A",
        "meta_epoch": "2025-12-17T09:27:30.722976",
        "meta_mean_motion": 1.00269092,
        "meta_eccentricity": 0.000226,
        "meta_inclination": 0.0181,
        "meta_ra_of_asc_node": 13.1687,
        "meta_arg_of_pericenter": 259.8183,
        "meta_mean_anomaly": 222.0446,
        "meta_ephemeris_type": 0,
        "meta_classification_type": "U",
        "meta_norad_cat_id": 54741,
        "meta_element_set_no": 999,
        "meta_rev_at_epoch": 1107,
        "meta_bstar": 0,
        "meta_mean_motion_dot": 0,
        "meta_mean_motion_ddot": 0,
        "tle_line1": "1 54741U 22170A   25351.39410559  .00000000  00000+0  00000+0 0  9993",
        "tle_line2": "2 54741   0.0181  13.1687 0002260 259.8183 222.0446  1.00269092 11073"
      },
      "geometry": {
        "type": "Point",
        "coordinates": [
          -11.729445584194853,
          -0.009756021908031457
        ]
      }
    },
    {
      "type": "Feature",
      "properties": {
        "norad_id": 54742,
        "name": "GALAXY 36 (G-36)",
        "group": "intelsat",
        "lat": 0.01680940175561922,
        "lon": -7.6278705011412065,
        "alt_km": 35784.78334815656,
        "timestamp": "2025-12-17T23:38:06.530861+00:00",
        "meta_object_name": "GALAXY 36 (G-36)",
        "meta_object_id": "2022-170B",
        "meta_epoch": "2025-12-17T12:54:09.976608",
        "meta_mean_motion": 1.00271566,
        "meta_eccentricity": 3.414e-05,
        "meta_inclination": 0.0139,
        "meta_ra_of_asc_node": 287.9317,
        "meta_arg_of_pericenter": 50.0127,
        "meta_mean_anomaly": 213.0127,
        "meta_ephemeris_type": 0,
        "meta_classification_type": "U",
        "meta_norad_cat_id": 54742,
        "meta_element_set_no": 999,
        "meta_rev_at_epoch": 1095,
        "meta_bstar": 0,
        "meta_mean_motion_dot": -1.6e-06,
        "meta_mean_motion_ddot": 0,
        "tle_line1": "1 54742U 22170B   25351.53761547 -.00000160  00000+0  00000+0 0  9994",
        "tle_line2": "2 54742   0.0139 287.9317 0000341  50.0127 213.0127  1.00271566 10956"
      },
      "geometry": {
        "type": "Point",
        "coordinates": [
          -7.6278705011412065,
          0.01680940175561922
        ]
      }
    },
    {
      "type": "Feature",
      "properties": {
        "norad_id": 57493,
        "name": "GALAXY 37 (G-37)",
        "group": "intelsat",
        "lat": -0.03485519760095855,
        "lon": -45.59658910881503,
        "alt_km": 35779.51171448726,
        "timestamp": "2025-12-17T23:38:06.530872+00:00",
        "meta_object_name": "GALAXY 37 (G-37)",
        "meta_object_id": "2023-112A",
        "meta_epoch": "2025-12-15T23:03:25.663680",
        "meta_mean_motion": 1.00272925,
        "meta_eccentricity": 0.00019988,
        "meta_inclination": 0.0242,
        "meta_ra_of_asc_node": 56.2601,
        "meta_arg_of_pericenter": 214.3075,
        "meta_mean_anomaly": 33.1555,
        "meta_ephemeris_type": 0,
        "meta_classification_type": "U",
        "meta_norad_cat_id": 57493,
        "meta_element_set_no": 999,
        "meta_rev_at_epoch": 870,
        "meta_bstar": 0,
        "meta_mean_motion_dot": 7e-07,
        "meta_mean_motion_ddot": 0,
        "tle_line1": "1 57493U 23112A   25349.96071370  .00000070  00000+0  00000+0 0  9998",
        "tle_line2": "2 57493   0.0242  56.2601 0001998 214.3075  33.1555  1.00272925  8702"
      },
      "geometry": {
        "type": "Point",
        "coordinates": [
          -45.59658910881503,
          -0.03485519760095855
        ]
      }
    }
  ]
}